<?xml version="1.0" encoding="UTF-8"?>
<ndm xmlns:xsi="http://www.w3.org/2001/XMLSchema-instance" xsi:noNamespaceSchemaLocation="https://sanaregistry.org/r/ndmxml_unqualified/ndmxml-2.0.0-master-2.0.xsd">
<omm id="CCSDS_OMM_VERS" version="2.0">
<header><CREATION_DATE/><ORIGINATOR/></header><body><segment><metadata><OBJECT_NAME>ONEWEB-0647</OBJECT_NAME><OBJECT_ID>2023-043AK</OBJECT_ID><CENTER_NAME>EARTH</CENTER_NAME><REF_FRAME>TEME</REF_FRAME><TIME_SYSTEM>UTC</TIME_SYSTEM><MEAN_ELEMENT_THEORY>SGP4</MEAN_ELEMENT_THEORY></metadata><data><meanElements><EPOCH>2024-08-14T16:35:05.745408</EPOCH><MEAN_MOTION>13.15549462</MEAN_MOTION><ECCENTRICITY>.0001584</ECCENTRICITY><INCLINATION>87.9040</INCLINATION><RA_OF_ASC_NODE>32.8537</RA_OF_ASC_NODE><ARG_OF_PERICENTER>84.2223</ARG_OF_PERICENTER><MEAN_ANOMALY>275.9088</MEAN_ANOMALY></meanElements><tleParameters><EPHEMERIS_TYPE>0</EPHEMERIS_TYPE><CLASSIFICATION_TYPE>U</CLASSIFICATION_TYPE><NORAD_CAT_ID>56079</NORAD_CAT_ID><ELEMENT_SET_NO>999</ELEMENT_SET_NO><REV_AT_EPOCH>6813</REV_AT_EPOCH><BSTAR>.46697E-3</BSTAR><MEAN_MOTION_DOT>.189E-5</MEAN_MOTION_DOT><MEAN_MOTION_DDOT>0</MEAN_MOTION_DDOT></tleParameters></data></segment></body></omm>
<omm id="CCSDS_OMM_VERS" version="2.0">
<header><CREATION_DATE/><ORIGINATOR/></header><body><segment><metadata><OBJECT_NAME>ONEWEB-0651</OBJECT_NAME><OBJECT_ID>2023-043AL</OBJECT_ID><CENTER_NAME>EARTH</CENTER_NAME><REF_FRAME>TEME</REF_FRAME><TIME_SYSTEM>UTC</TIME_SYSTEM><MEAN_ELEMENT_THEORY>SGP4</MEAN_ELEMENT_THEORY></metadata><data><meanElements><EPOCH>2024-08-14T12:49:12.074592</EPOCH><MEAN_MOTION>13.15548264</MEAN_MOTION><ECCENTRICITY>.0002008</ECCENTRICITY><INCLINATION>87.9042</INCLINATION><RA_OF_ASC_NODE>32.8635</RA_OF_ASC_NODE><ARG_OF_PERICENTER>82.8452</ARG_OF_PERICENTER><MEAN_ANOMALY>277.2906</MEAN_ANOMALY></meanElements><tleParameters><EPHEMERIS_TYPE>0</EPHEMERIS_TYPE><CLASSIFICATION_TYPE>U</CLASSIFICATION_TYPE><NORAD_CAT_ID>56080</NORAD_CAT_ID><ELEMENT_SET_NO>999</ELEMENT_SET_NO><REV_AT_EPOCH>6931</REV_AT_EPOCH><BSTAR>.75781E-3</BSTAR><MEAN_MOTION_DOT>.298E-5</MEAN_MOTION_DOT><MEAN_MOTION_DDOT>0</MEAN_MOTION_DDOT></tleParameters></data></segment></body></omm>
<omm id="CCSDS_OMM_VERS" version="2.0">
<header><CREATION_DATE/><ORIGINATOR/></header><body><segment><metadata><OBJECT_NAME>ONEWEB-0718</OBJECT_NAME><OBJECT_ID>2023-043AM</OBJECT_ID><CENTER_NAME>EARTH</CENTER_NAME><REF_FRAME>TEME</REF_FRAME><TIME_SYSTEM>UTC</TIME_SYSTEM><MEAN_ELEMENT_THEORY>SGP4</MEAN_ELEMENT_THEORY></metadata><data><meanElements><EPOCH>2024-08-14T10:52:49.796832</EPOCH><MEAN_MOTION>13.15547027</MEAN_MOTION><ECCENTRICITY>.0002071</ECCENTRICITY><INCLINATION>87.9039</INCLINATION><RA_OF_ASC_NODE>32.8655</RA_OF_ASC_NODE><ARG_OF_PERICENTER>107.3126</ARG_OF_PERICENTER><MEAN_ANOMALY>252.8231</MEAN_ANOMALY></meanElements><tleParameters><EPHEMERIS_TYPE>0</EPHEMERIS_TYPE><CLASSIFICATION_TYPE>U</CLASSIFICATION_TYPE><NORAD_CAT_ID>56081</NORAD_CAT_ID><ELEMENT_SET_NO>999</ELEMENT_SET_NO><REV_AT_EPOCH>6811</REV_AT_EPOCH><BSTAR>.52436E-3</BSTAR><MEAN_MOTION_DOT>.21E-5</MEAN_MOTION_DOT><MEAN_MOTION_DDOT>0</MEAN_MOTION_DDOT></tleParameters></data></segment></body></omm>
<omm id="CCSDS_OMM_VERS" version="2.0">
<header><CREATION_DATE/><ORIGINATOR/></header><body><segment><metadata><OBJECT_NAME>ONEWEB-0561</OBJECT_NAME><OBJECT_ID>2023-068A</OBJECT_ID><CENTER_NAME>EARTH</CENTER_NAME><REF_FRAME>TEME</REF_FRAME><TIME_SYSTEM>UTC</TIME_SYSTEM><MEAN_ELEMENT_THEORY>SGP4</MEAN_ELEMENT_THEORY></metadata><data><meanElements><EPOCH>2024-08-14T12:54:49.675680</EPOCH><MEAN_MOTION>13.20772105</MEAN_MOTION><ECCENTRICITY>.0001869</ECCENTRICITY><INCLINATION>87.9197</INCLINATION><RA_OF_ASC_NODE>48.0857</RA_OF_ASC_NODE><ARG_OF_PERICENTER>68.0216</ARG_OF_PERICENTER><MEAN_ANOMALY>292.1115</MEAN_ANOMALY></meanElements><tleParameters><EPHEMERIS_TYPE>0</EPHEMERIS_TYPE><CLASSIFICATION_TYPE>U</CLASSIFICATION_TYPE><NORAD_CAT_ID>56710</NORAD_CAT_ID><ELEMENT_SET_NO>999</ELEMENT_SET_NO><REV_AT_EPOCH>6084</REV_AT_EPOCH><BSTAR>.49782E-3</BSTAR><MEAN_MOTION_DOT>.215E-5</MEAN_MOTION_DOT><MEAN_MOTION_DDOT>0</MEAN_MOTION_DDOT></tleParameters></data></segment></body></omm>
<omm id="CCSDS_OMM_VERS" version="2.0">
<header><CREATION_DATE/><ORIGINATOR/></header><body><segment><metadata><OBJECT_NAME>ONEWEB-0668</OBJECT_NAME><OBJECT_ID>2023-068B</OBJECT_ID><CENTER_NAME>EARTH</CENTER_NAME><REF_FRAME>TEME</REF_FRAME><TIME_SYSTEM>UTC</TIME_SYSTEM><MEAN_ELEMENT_THEORY>SGP4</MEAN_ELEMENT_THEORY></metadata><data><meanElements><EPOCH>2024-08-14T09:58:21.080064</EPOCH><MEAN_MOTION>13.16596137</MEAN_MOTION><ECCENTRICITY>.000234</ECCENTRICITY><INCLINATION>87.9135</INCLINATION><RA_OF_ASC_NODE>2.5268</RA_OF_ASC_NODE><ARG_OF_PERICENTER>107.9451</ARG_OF_PERICENTER><MEAN_ANOMALY>252.1935</MEAN_ANOMALY></meanElements><tleParameters><EPHEMERIS_TYPE>0</EPHEMERIS_TYPE><CLASSIFICATION_TYPE>U</CLASSIFICATION_TYPE><NORAD_CAT_ID>56711</NORAD_CAT_ID><ELEMENT_SET_NO>999</ELEMENT_SET_NO><REV_AT_EPOCH>6338</REV_AT_EPOCH><BSTAR>.3482E-3</BSTAR><MEAN_MOTION_DOT>.146E-5</MEAN_MOTION_DOT><MEAN_MOTION_DDOT>0</MEAN_MOTION_DDOT></tleParameters></data></segment></body></omm>
<omm id="CCSDS_OMM_VERS" version="2.0">
<header><CREATION_DATE/><ORIGINATOR/></header><body><segment><metadata><OBJECT_NAME>ONEWEB-0676</OBJECT_NAME><OBJECT_ID>2023-068C</OBJECT_ID><CENTER_NAME>EARTH</CENTER_NAME><REF_FRAME>TEME</REF_FRAME><TIME_SYSTEM>UTC</TIME_SYSTEM><MEAN_ELEMENT_THEORY>SGP4</MEAN_ELEMENT_THEORY></metadata><data><meanElements><EPOCH>2024-08-14T18:37:01.582464</EPOCH><MEAN_MOTION>13.16594853</MEAN_MOTION><ECCENTRICITY>.0001789</ECCENTRICITY><INCLINATION>87.9146</INCLINATION><RA_OF_ASC_NODE>2.4655</RA_OF_ASC_NODE><ARG_OF_PERICENTER>79.1478</ARG_OF_PERICENTER><MEAN_ANOMALY>280.9854</MEAN_ANOMALY></meanElements><tleParameters><EPHEMERIS_TYPE>0</EPHEMERIS_TYPE><CLASSIFICATION_TYPE>U</CLASSIFICATION_TYPE><NORAD_CAT_ID>56712</NORAD_CAT_ID><ELEMENT_SET_NO>999</ELEMENT_SET_NO><REV_AT_EPOCH>6405</REV_AT_EPOCH><BSTAR>.15632E-3</BSTAR><MEAN_MOTION_DOT>.73E-6</MEAN_MOTION_DOT><MEAN_MOTION_DDOT>0</MEAN_MOTION_DDOT></tleParameters></data></segment></body></omm>
<omm id="CCSDS_OMM_VERS" version="2.0">
<header><CREATION_DATE/><ORIGINATOR/></header><body><segment><metadata><OBJECT_NAME>ONEWEB-0677</OBJECT_NAME><OBJECT_ID>2023-068D</OBJECT_ID><CENTER_NAME>EARTH</CENTER_NAME><REF_FRAME>TEME</REF_FRAME><TIME_SYSTEM>UTC</TIME_SYSTEM><MEAN_ELEMENT_THEORY>SGP4</MEAN_ELEMENT_THEORY></metadata><data><meanElements><EPOCH>2024-08-14T12:38:55.289184</EPOCH><MEAN_MOTION>13.20770987</MEAN_MOTION><ECCENTRICITY>.000206</ECCENTRICITY><INCLINATION>87.9177</INCLINATION><RA_OF_ASC_NODE>48.0742</RA_OF_ASC_NODE><ARG_OF_PERICENTER>85.3924</ARG_OF_PERICENTER><MEAN_ANOMALY>274.7444</MEAN_ANOMALY></meanElements><tleParameters><EPHEMERIS_TYPE>0</EPHEMERIS_TYPE><CLASSIFICATION_TYPE>U</CLASSIFICATION_TYPE><NORAD_CAT_ID>56713</NORAD_CAT_ID><ELEMENT_SET_NO>999</ELEMENT_SET_NO><REV_AT_EPOCH>6114</REV_AT_EPOCH><BSTAR>.23555E-3</BSTAR><MEAN_MOTION_DOT>.109E-5</MEAN_MOTION_DOT><MEAN_MOTION_DDOT>0</MEAN_MOTION_DDOT></tleParameters></data></segment></body></omm>
<omm id="CCSDS_OMM_VERS" version="2.0">
<header><CREATION_DATE/><ORIGINATOR/></header><body><segment><metadata><OBJECT_NAME>ONEWEB-0678</OBJECT_NAME><OBJECT_ID>2023-068E</OBJECT_ID><CENTER_NAME>EARTH</CENTER_NAME><REF_FRAME>TEME</REF_FRAME><TIME_SYSTEM>UTC</TIME_SYSTEM><MEAN_ELEMENT_THEORY>SGP4</MEAN_ELEMENT_THEORY></metadata><data><meanElements><EPOCH>2024-08-14T11:56:42.874944</EPOCH><MEAN_MOTION>13.15546866</MEAN_MOTION><ECCENTRICITY>.0001436</ECCENTRICITY><INCLINATION>87.9045</INCLINATION><RA_OF_ASC_NODE>32.8224</RA_OF_ASC_NODE><ARG_OF_PERICENTER>87.6477</ARG_OF_PERICENTER><MEAN_ANOMALY>272.4818</MEAN_ANOMALY></meanElements><tleParameters><EPHEMERIS_TYPE>0</EPHEMERIS_TYPE><CLASSIFICATION_TYPE>U</CLASSIFICATION_TYPE><NORAD_CAT_ID>56714</NORAD_CAT_ID><ELEMENT_SET_NO>999</ELEMENT_SET_NO><REV_AT_EPOCH>6167</REV_AT_EPOCH><BSTAR>-.21934E-3</BSTAR><MEAN_MOTION_DOT>-.7E-6</MEAN_MOTION_DOT><MEAN_MOTION_DDOT>0</MEAN_MOTION_DDOT></tleParameters></data></segment></body></omm>
<omm id="CCSDS_OMM_VERS" version="2.0">
<header><CREATION_DATE/><ORIGINATOR/></header><body><segment><metadata><OBJECT_NAME>ONEWEB-0679</OBJECT_NAME><OBJECT_ID>2023-068F</OBJECT_ID><CENTER_NAME>EARTH</CENTER_NAME><REF_FRAME>TEME</REF_FRAME><TIME_SYSTEM>UTC</TIME_SYSTEM><MEAN_ELEMENT_THEORY>SGP4</MEAN_ELEMENT_THEORY></metadata><data><meanElements><EPOCH>2024-08-14T08:45:23.430528</EPOCH><MEAN_MOTION>13.16596423</MEAN_MOTION><ECCENTRICITY>.0002525</ECCENTRICITY><INCLINATION>87.9138</INCLINATION><RA_OF_ASC_NODE>2.5486</RA_OF_ASC_NODE><ARG_OF_PERICENTER>92.4514</ARG_OF_PERICENTER><MEAN_ANOMALY>267.6906</MEAN_ANOMALY></meanElements><tleParameters><EPHEMERIS_TYPE>0</EPHEMERIS_TYPE><CLASSIFICATION_TYPE>U</CLASSIFICATION_TYPE><NORAD_CAT_ID>56715</NORAD_CAT_ID><ELEMENT_SET_NO>999</ELEMENT_SET_NO><REV_AT_EPOCH>6332</REV_AT_EPOCH><BSTAR>.45432E-3</BSTAR><MEAN_MOTION_DOT>.187E-5</MEAN_MOTION_DOT><MEAN_MOTION_DDOT>0</MEAN_MOTION_DDOT></tleParameters></data></segment></body></omm>

</ndm>
